NORAD_CAT_ID,OBJECT_NAME,OBJECT_TYPE,EPOCH,MEAN_MOTION,ECCENTRICITY,INCLINATION,RA_OF_ASC_NODE,ARG_OF_PERICENTER,MEAN_ANOMALY,BSTAR,MEAN_MOTION_DOT,MEAN_MOTION_DDOT,TLE_LINE0,TLE_LINE1,TLE_LINE2,SEMIMAJOR_AXIS,PERIOD,APOGEE,PERIGEE,DECAYED
49423.0,STARLINK-3149,PAYLOAD,2022-04-06 14:00:01,15.08820278,0.0002329,53.2154,182.5716,32.7285,13.494000000000002,0.0016480999999999,0.00026025,0.0,0 STARLINK-3149,1 49423U 21104R   22096.58334491  .00026025  00000-0  16481-2 0  9993,2 49423  53.2154 182.5716 0002329  32.7285  13.4940 15.08820278 23363,6917.941,95.439,541.4169999999998,538.194,0.0
49423.0,STARLINK-3149,PAYLOAD,2022-04-06 22:00:00,15.08836839,0.0002296,53.2164,181.0784,30.8027,27.0018,0.0056777,0.00091238,0.0,0 STARLINK-3149,1 49423U 21104R   22096.91667824  .00091238  00000-0  56777-2 0  9999,2 49423  53.2164 181.0784 0002296  30.8027  27.0018 15.08836839  3577,6917.89,95.438,541.3430000000002,538.1669999999998,0.0
49423.0,STARLINK-3149,PAYLOAD,2022-04-07 14:00:01,15.08830258,0.0002337,53.2157,178.0823,30.767,50.2369,0.0019166,0.00030339,0.0,0 STARLINK-3149,1 49423U 21104R   22097.58334491  .00030339  00000-0  19166-2 0  9990,2 49423  53.2157 178.0823 0002337  30.7670  50.2369 15.08830258  3608,6917.91,95.438,541.3919999999998,538.158,0.0
49423.0,STARLINK-3149,PAYLOAD,2022-04-07 20:00:01,15.08873352,0.0002285,53.2154,176.9593,29.3275,330.3713,-0.00091597,-0.0001485,0.0,0 STARLINK-3149,1 49423U 21104R   22097.83334491 -.00014850  00000-0 -91597-3 0  9999,2 49423  53.2154 176.9593 0002285  29.3275 330.3713 15.08873352 23545,6917.778,95.435,541.224,538.063,0.0
49423.0,STARLINK-3149,PAYLOAD,2022-04-07 22:00:00,15.08877019,0.0002212,53.2157,176.5847,30.5344,62.0704,-0.0014103,-0.00022687,0.0,0 STARLINK-3149,1 49423U 21104R   22097.91667824 -.00022687  00000-0 -14103-2 0  9991,2 49423  53.2157 176.5847 0002212  30.5344  62.0704 15.08877019  3616,6917.767,95.435,541.1619999999998,538.102,0.0
49423.0,STARLINK-3149,PAYLOAD,2022-04-08 14:00:03,15.08860112,0.0002301,53.2159,173.5929,27.6114,88.3722,-0.00065914,-0.00010769,0.0,0 STARLINK-3149,1 49423U 21104R   22098.58336806 -.00010769  00000-0 -65914-3 0  9993,2 49423  53.2159 173.5929 0002301  27.6114  88.3722 15.08860112  3603,6917.819,95.436,541.276,538.092,0.0
49423.0,STARLINK-3149,PAYLOAD,2022-04-08 22:00:00,15.08857853,0.0002154,53.2158,172.0953,28.8096,98.6668,-0.0039562,-0.00062736,0.0,0 STARLINK-3149,1 49423U 21104R   22098.91667824 -.00062736  00000-0 -39562-2 0  9997,2 49423  53.2158 172.0953 0002154  28.8096  98.6668 15.08857853 23716,6917.826,95.436,541.181,538.201,0.0
49423.0,STARLINK-3149,PAYLOAD,2022-04-09 14:00:01,15.08818759,0.0002319,53.2159,169.104,28.7726,121.8628,0.00050357,7.731e-05,0.0,0 STARLINK-3149,1 49423U 21104R   22099.58334491  .00007731  00000-0  50357-3 0  9990,2 49423  53.2159 169.1040 0002319  28.7726 121.8628 15.08818759  3606,6917.945,95.439,541.415,538.206,0.0
49423.0,STARLINK-3149,PAYLOAD,2022-04-09 16:00:00,15.08826268,0.0002311,53.2156,168.7299,27.6917,215.8427,0.00056996,8.791e-05,0.0,0 STARLINK-3149,1 49423U 21104R   22099.66667824  .00008791  00000-0  56996-3 0  9990,2 49423  53.2156 168.7299 0002311  27.6917 215.8427 15.08826268 23827,6917.922,95.438,541.386,538.189,0.0
49423.0,STARLINK-3149,PAYLOAD,2022-04-09 22:00:00,15.08825931,0.0002123,53.2157,167.6062,28.6573,133.5667,-0.00038443,-6.399e-05,0.0,0 STARLINK-3149,1 49423U 21104R   22099.91667824 -.00006399  00000-0 -38443-3 0  9999,2 49423  53.2157 167.6062 0002123  28.6573 133.5667 15.08825931  3606,6917.9230000000025,95.438,541.257,538.32,0.0
49423.0,STARLINK-3149,PAYLOAD,2022-04-10 14:00:01,15.08823671,0.0002299,53.2157,164.6152,27.6138,157.7771,0.0019595,0.00031022,0.0,0 STARLINK-3149,1 49423U 21104R   22100.58334491  .00031022  00000-0  19595-2 0  9991,2 49423  53.2157 164.6152 0002299  27.6138 157.7771 15.08823671  3606,6917.93,95.439,541.386,538.205,0.0
49423.0,STARLINK-3149,PAYLOAD,2022-04-10 22:00:00,15.08842787,0.0002108,53.2154,163.1171,27.8633,169.1367,-0.0002562,-4.364e-05,0.0,0 STARLINK-3149,1 49423U 21104R   22100.91667824 -.00004364  00000-0 -25620-3 0  9995,2 49423  53.2154 163.1171 0002108  27.8633 169.1367 15.08842787 24014,6917.871999999999,95.437,541.195,538.279,0.0
49423.0,STARLINK-3149,PAYLOAD,2022-04-11 14:00:01,15.0883554,0.0002339,53.2155,160.1262,27.9355,192.2502,-0.00031129,-5.239e-05,0.0,0 STARLINK-3149,1 49423U 21104R   22101.58334491 -.00005239  00000-0 -31129-3 0  9993,2 49423  53.2155 160.1262 0002339  27.9355 192.2502 15.08835540  3600,6917.894,95.438,541.377,538.141,0.0
49423.0,STARLINK-3149,PAYLOAD,2022-04-11 22:00:00,15.08813246,0.0002167,53.2153,158.628,29.1965,202.5833,-0.0017491,-0.00027998,0.0,0 STARLINK-3149,1 49423U 21104R   22101.91667824 -.00027998  00000-0 -17491-2 0  9990,2 49423  53.2153 158.6280 0002167  29.1965 202.5833 15.08813246  3599,6917.962,95.439,541.326,538.328,0.0
49423.0,STARLINK-3149,PAYLOAD,2022-04-12 06:00:02,15.08809759,0.0002167,53.2154,157.132,30.9488,212.4353,-0.00071303,-0.00011609,0.0,0 STARLINK-3149,1 49423U 21104R   22102.25002315 -.00011609  00000-0 -71303-3 0  9991,2 49423  53.2154 157.1320 0002167  30.9488 212.4353 15.08809759 24212,6917.973000000001,95.439,541.337,538.339,0.0
49423.0,STARLINK-3149,PAYLOAD,2022-04-12 14:00:01,15.08779614,0.0002402,53.2154,155.6373,27.3638,227.515,0.003338,0.0005315,0.0,0 STARLINK-3149,1 49423U 21104R   22102.58334491  .00053150  00000-0  33380-2 0  9997,2 49423  53.2154 155.6373 0002402  27.3638 227.5150 15.08779614  3598,6918.065,95.441,541.592,538.268,0.0
49423.0,STARLINK-3149,PAYLOAD,2022-04-12 22:00:00,15.08828782,0.0002184,53.2155,154.1391,26.4836,239.9671,0.0010079,0.00015784,0.0,0 STARLINK-3149,1 49423U 21104R   22102.91667824  .00015784  00000-0  10079-2 0  9994,2 49423  53.2155 154.1391 0002184  26.4836 239.9671 15.08828782 24319,6917.915,95.438,541.2909999999998,538.269,0.0
49423.0,STARLINK-3149,PAYLOAD,2022-04-13 14:00:03,15.08830043,0.0002469,53.2154,151.148,26.0929,263.6847,0.0032856,0.00052378,0.0,0 STARLINK-3149,1 49423U 21104R   22103.58336806  .00052378  00000-0  32856-2 0  9998,2 49423  53.2154 151.1480 0002469  26.0929 263.6847 15.08830043  3611,6917.911,95.438,541.484,538.068,0.0
49423.0,STARLINK-3149,PAYLOAD,2022-04-13 22:00:00,15.08850401,0.0002286,53.2156,149.6498,27.9093,273.3584,0.0016835,0.00026615,0.0,0 STARLINK-3149,1 49423U 21104R   22103.91667824  .00026615  00000-0  16835-2 0  9996,2 49423  53.2156 149.6498 0002286  27.9093 273.3584 15.08850401  3608,6917.849,95.437,541.295,538.132,0.0
49423.0,STARLINK-3149,PAYLOAD,2022-04-14 06:00:00,15.08886188,0.0002315,53.2157,148.1538,28.0308,284.8451,-0.0044263,-0.00070139,0.0,0 STARLINK-3149,1 49423U 21104R   22104.25001157 -.00070139  00000-0 -44263-2 0  9993,2 49423  53.2157 148.1538 0002315  28.0308 284.8451 15.08886188 24516,6917.739000000001,95.435,541.206,538.003,0.0
49423.0,STARLINK-3149,PAYLOAD,2022-04-14 14:00:01,15.08833601,0.0002485,53.2155,146.6586,23.5593,300.9382,0.00033014,4.969e-05,0.0,0 STARLINK-3149,1 49423U 21104R   22104.58334491  .00004969  00000-0  33014-3 0  9998,2 49423  53.2155 146.6586 0002485  23.5593 300.9382 15.08833601  3594,6917.9,95.438,541.484,538.0459999999998,0.0
49423.0,STARLINK-3149,PAYLOAD,2022-04-14 22:00:00,15.08808244,0.0002271,53.2156,145.1603,24.6049,311.4957,0.0017725999999999,0.00028011,0.0,0 STARLINK-3149,1 49423U 21104R   22104.91667824  .00028011  00000-0  17726-2 0  9999,2 49423  53.2156 145.1603 0002271  24.6049 311.4957 15.08808244 24616,6917.977,95.44,541.414,538.271,0.0
49423.0,STARLINK-3149,PAYLOAD,2022-04-15 14:00:01,15.08832958,0.0002539,53.2154,142.1691,23.6508,335.6329,0.0030243,0.00048165,0.0,0 STARLINK-3149,1 49423U 21104R   22105.58334491  .00048165  00000-0  30243-2 0  9995,2 49423  53.2154 142.1691 0002539  23.6508 335.6329 15.08832958  3600,6917.901999999999,95.438,541.523,538.01,0.0
49423.0,STARLINK-3149,PAYLOAD,2022-04-15 22:00:00,15.08841901,0.0002329,53.2163,140.6726,26.2095,344.6767,0.00038928,5.913e-05,0.0,0 STARLINK-3149,1 49423U 21104R   22105.91667824  .00005913  00000-0  38928-3 0  9994,2 49423  53.2163 140.6726 0002329  26.2095 344.6767 15.08841901  3579,6917.875,95.437,541.351,538.128,0.0
49423.0,STARLINK-3149,PAYLOAD,2022-04-16 06:00:00,15.08831928,0.0002455,53.2171,139.1793,26.8798,355.6112,-0.0027162,-0.0004325,0.0,0 STARLINK-3149,1 49423U 21104R   22106.25001157 -.00043250  00000-0 -27162-2 0  9998,2 49423  53.2171 139.1793 0002455  26.8798 355.6112 15.08831928 24826,6917.905,95.438,541.4680000000002,538.072,0.0
49423.0,STARLINK-3149,PAYLOAD,2022-04-16 14:00:01,15.08821136,0.0002626,53.215,137.6794,27.0294,7.0502,0.0019421,0.00030741,0.0,0 STARLINK-3149,1 49423U 21104R   22106.58334491  .00030741  00000-0  19421-2 0  9992,2 49423  53.2150 137.6794 0002626  27.0294   7.0502 15.08821136 24877,6917.938,95.439,541.62,537.986,0.0
49423.0,STARLINK-3149,PAYLOAD,2022-04-16 22:00:01,15.08814992,0.0002377,53.2151,136.1812,30.0861,15.651,0.0027115,0.00043101,0.0,0 STARLINK-3149,1 49423U 21104R   22106.91668981  .00043101  00000-0  27115-2 0  9996,2 49423  53.2151 136.1812 0002377  30.0861  15.6510 15.08814992  3604,6917.956999999999,95.439,541.466,538.177,0.0
49423.0,STARLINK-3149,PAYLOAD,2022-04-17 06:00:00,15.08866344,0.0002473,53.2152,134.6859,29.5834,27.6698,-0.0048916,-0.00077363,0.0,0 STARLINK-3149,1 49423U 21104R   22107.25001157 -.00077363  00000-0 -48916-2 0  9991,2 49423  53.2152 134.6859 0002473  29.5834  27.6698 15.08866344 24970,6917.8,95.436,541.376,537.9540000000002,0.0
49423.0,STARLINK-3149,PAYLOAD,2022-04-17 14:00:01,15.08807838,0.0002591,53.2146,133.19,26.3162,42.5318,0.0014171,0.00022318,0.0,0 STARLINK-3149,1 49423U 21104R   22107.58334491  .00022318  00000-0  14171-2 0  9991,2 49423  53.2146 133.1900 0002591  26.3162  42.5318 15.08807838  3609,6917.979,95.44,541.636,538.0509999999998,0.0
